[
    {
        "Altitude(m)": 604221.2219688318,
        "Argument of Periapsis(deg)": 0.0,
        "Eccentricity": 0.0,
        "Inclination(deg)": 60.0,
        "Latitude(deg)": 14.117346458275714,
        "Longitude(deg)": 148.33416960526358,
        "Mean Anomaly(deg)": 16.363599999999984,
        "RAAN(deg)": 240.0,
        "Satellite Name": "Test1 1057",
        "Satellite Number": 1057,
        "Semi-Major Axis(m)": 6980739.136638005,
        "Time(s)": 0
    },
    {
        "Altitude(m)": 604235.3634333928,
        "Argument of Periapsis(deg)": 0.00010418945913296404,
        "Eccentricity": 0.0,
        "Inclination(deg)": 60.0,
        "Latitude(deg)": 14.65174289528584,
        "Longitude(deg)": 148.62261730484357,
        "Mean Anomaly(deg)": 16.983706145461838,
        "RAAN(deg)": 239.99957995086024,
        "Satellite Name": "Test1 1057",
        "Satellite Number": 1057,
        "Semi-Major Axis(m)": 6980739.136638005,
        "Time(s)": 10
    }
]